STARLINK-1739_new
1 16363C 20062AR  21326.10485079 -.00003057  00000-0 -20480-3 0  3268
2 16363  53.0515 173.2693 0001941  82.6567 136.0877 15.06408098    17
STARLINK-1739_old
1 26363C 20062AR  21325.17950782  .00003811  00000-0  25533-3 0  3251
2 26363  53.0513 177.4236 0001953  80.9881 156.8018 15.06397130    18
